{
    "links": {
        "self": "http://www.neowsapp.com/rest/v1/neo/3616820?api_key=iIulBulltgU6a56xZRHN4H3l9WmuAYTsLGpBGhQ2"
    },
    "id": "3616820",
    "neo_reference_id": "3616820",
    "name": "(2012 VB20)",
    "designation": "2012 VB20",
    "nasa_jpl_url": "http://ssd.jpl.nasa.gov/sbdb.cgi?sstr=3616820",
    "absolute_magnitude_h": 24.3,
    "estimated_diameter": {
        "kilometers": {
            "estimated_diameter_min": 0.0366906138,
            "estimated_diameter_max": 0.0820427065
        },
        "meters": {
            "estimated_diameter_min": 36.6906137531,
            "estimated_diameter_max": 82.0427064882
        },
        "miles": {
            "estimated_diameter_min": 0.0227984834,
            "estimated_diameter_max": 0.0509789586
        },
        "feet": {
            "estimated_diameter_min": 120.3760332259,
            "estimated_diameter_max": 269.1689931548
        }
    },
    "is_potentially_hazardous_asteroid": false,
    "close_approach_data": [
        {
            "close_approach_date": "2012-10-31",
            "close_approach_date_full": "2012-Oct-31 06:57",
            "epoch_date_close_approach": 1351666620000,
            "relative_velocity": {
                "kilometers_per_second": "13.1104771371",
                "kilometers_per_hour": "47197.717693421",
                "miles_per_hour": "29326.8263078926"
            },
            "miss_distance": {
                "astronomical": "0.0070066971",
                "lunar": "2.7256051719",
                "kilometers": "1048186.961895177",
                "miles": "651313.1763283626"
            },
            "orbiting_body": "Earth"
        },
        {
            "close_approach_date": "2012-10-31",
            "close_approach_date_full": "2012-Oct-31 15:15",
            "epoch_date_close_approach": 1351696500000,
            "relative_velocity": {
                "kilometers_per_second": "13.0636285593",
                "kilometers_per_hour": "47029.0628133317",
                "miles_per_hour": "29222.030724206"
            },
            "miss_distance": {
                "astronomical": "0.0067767973",
                "lunar": "2.6361741497",
                "kilometers": "1013794.441501751",
                "miles": "629942.6551201238"
            },
            "orbiting_body": "Moon"
        },
        {
            "close_approach_date": "2127-10-23",
            "close_approach_date_full": "2127-Oct-23 01:15",
            "epoch_date_close_approach": 4979927700000,
            "relative_velocity": {
                "kilometers_per_second": "11.2465858968",
                "kilometers_per_hour": "40487.7092285473",
                "miles_per_hour": "25157.4879925938"
            },
            "miss_distance": {
                "astronomical": "0.0741725774",
                "lunar": "28.8531326086",
                "kilometers": "11096059.591450138",
                "miles": "6894771.7153143844"
            },
            "orbiting_body": "Earth"
        }
    ],
    "orbital_data": {
        "orbit_id": "7",
        "orbit_determination_date": "2017-04-06 08:48:08",
        "first_observation_date": "2012-11-05",
        "last_observation_date": "2012-11-18",
        "data_arc_in_days": 13,
        "observations_used": 69,
        "orbit_uncertainty": "8",
        "minimum_orbit_intersection": ".00699712",
        "jupiter_tisserand_invariant": "3.429",
        "epoch_osculation": "2456239.5",
        "eccentricity": ".6009996185476093",
        "semi_major_axis": "2.170480512503858",
        "inclination": "1.958922466784743",
        "ascending_node_longitude": "229.8222712231469",
        "orbital_period": "1167.971547530084",
        "perihelion_distance": ".8660225524240196",
        "perihelion_argument": "119.3818747624119",
        "aphelion_distance": "3.474938472583696",
        "perihelion_time": "2456197.088289835307",
        "mean_anomaly": "13.07242089208189",
        "mean_motion": ".3082266864816135",
        "equinox": "J2000",
        "orbit_class": {
            "orbit_class_type": "APO",
            "orbit_class_description": "Near-Earth asteroid orbits which cross the Earth’s orbit similar to that of 1862 Apollo",
            "orbit_class_range": "a (semi-major axis) > 1.0 AU; q (perihelion) < 1.017 AU"
        }
    },
    "is_sentry_object": false
}